{"type": "FeatureCollection", "features": [ {"type": "Feature", "properties": {"norad_id": 38552, "name": "METEOSAT-10 (MSG-3)", "group": "weather", "lat": -3.4379785734607964, "lon": -63.985085858036655, "alt_km": 35782.95460851221, "timestamp": "2025-12-05T14:45:14.957454+00:00", "meta": {"OBJECT_NAME": "METEOSAT-10 (MSG-3)", "OBJECT_ID": "2012-035B", "EPOCH": "2025-12-04T01:44:31.731072", "MEAN_MOTION": 1.00272508, "ECCENTRICITY": 8.021e-05, "INCLINATION": 4.2071, "RA_OF_ASC_NODE": 61.7359, "ARG_OF_PERICENTER": 221.6691, "MEAN_ANOMALY": 175.985, "EPHEMERIS_TYPE": 0, "CLASSIFICATION_TYPE": "U", "NORAD_CAT_ID": 38552, "ELEMENT_SET_NO": 999, "REV_AT_EPOCH": 4890, "BSTAR": 0, "MEAN_MOTION_DOT": 8e-08, "MEAN_MOTION_DDOT": 0}, "tle": {"line1": "1 38552U 12035B   25338.07258948  .00000008  00000+0  00000+0 0  9994", "line2": "2 38552   4.2071  61.7359 0000802 221.6691 175.9850  1.00272508 48908"}}, "geometry": {"type": "Point", "coordinates": [-63.985085858036655, -3.4379785734607964]}}, {"type": "Feature", "properties": {"norad_id": 38771, "name": "METOP-B", "group": "weather", "lat": 9.167568612567106, "lon": 28.281160200479164, "alt_km": 823.8498989841055, "timestamp": "2025-12-05T14:45:14.957465+00:00", "meta": {"OBJECT_NAME": "METOP-B", "OBJECT_ID": "2012-049A", "EPOCH": "2025-12-04T16:44:53.128896", "MEAN_MOTION": 14.21403839, "ECCENTRICITY": 0.0002555, "INCLINATION": 98.6811, "RA_OF_ASC_NODE": 28.7926, "ARG_OF_PERICENTER": 162.161, "MEAN_ANOMALY": 197.9657, "EPHEMERIS_TYPE": 0, "CLASSIFICATION_TYPE": "U", "NORAD_CAT_ID": 38771, "ELEMENT_SET_NO": 999, "REV_AT_EPOCH": 68563, "BSTAR": 0.00015431, "MEAN_MOTION_DOT": 2.94e-06, "MEAN_MOTION_DDOT": 0}, "tle": {"line1": "1 38771U 12049A   25338.69783714  .00000294  00000+0  15431-3 0  9999", "line2": "2 38771  98.6811  28.7926 0002555 162.1610 197.9657 14.21403839685636"}}, "geometry": {"type": "Point", "coordinates": [28.281160200479164, 9.167568612567106]}}, {"type": "Feature", "properties": {"norad_id": 39216, "name": "INSAT-3D", "group": "weather", "lat": -0.45004185318153417, "lon": 65.50472192867801, "alt_km": 35793.40938897403, "timestamp": "2025-12-05T14:45:14.957477+00:00", "meta": {"OBJECT_NAME": "INSAT-3D", "OBJECT_ID": "2013-038B", "EPOCH": "2025-12-04T14:20:31.070976", "MEAN_MOTION": 1.00273216, "ECCENTRICITY": 0.0001779, "INCLINATION": 1.4223, "RA_OF_ASC_NODE": 85.085, "ARG_OF_PERICENTER": 156.7246, "MEAN_ANOMALY": 176.5152, "EPHEMERIS_TYPE": 0, "CLASSIFICATION_TYPE": "U", "NORAD_CAT_ID": 39216, "ELEMENT_SET_NO": 999, "REV_AT_EPOCH": 4512, "BSTAR": 0, "MEAN_MOTION_DOT": -3.25e-06, "MEAN_MOTION_DDOT": 0}, "tle": {"line1": "1 39216U 13038B   25338.59758184 -.00000325  00000+0  00000+0 0  9993", "line2": "2 39216   1.4223  85.0850 0001779 156.7246 176.5152  1.00273216 45127"}}, "geometry": {"type": "Point", "coordinates": [65.50472192867801, -0.45004185318153417]}}, {"type": "Feature", "properties": {"norad_id": 39260, "name": "FENGYUN 3C", "group": "weather", "lat": 42.17399961383322, "lon": -50.120979723980135, "alt_km": 846.4567091695735, "timestamp": "2025-12-05T14:45:14.957488+00:00", "meta": {"OBJECT_NAME": "FENGYUN 3C", "OBJECT_ID": "2013-052A", "EPOCH": "2025-12-04T18:11:50.828352", "MEAN_MOTION": 14.15692637, "ECCENTRICITY": 0.0013885, "INCLINATION": 98.4755, "RA_OF_ASC_NODE": 316.8277, "ARG_OF_PERICENTER": 219.9753, "MEAN_ANOMALY": 140.04, "EPHEMERIS_TYPE": 0, "CLASSIFICATION_TYPE": "U", "NORAD_CAT_ID": 39260, "ELEMENT_SET_NO": 999, "REV_AT_EPOCH": 63105, "BSTAR": 0.00014643, "MEAN_MOTION_DOT": 2.46e-06, "MEAN_MOTION_DDOT": 0}, "tle": {"line1": "1 39260U 13052A   25338.75822718  .00000246  00000+0  14643-3 0  9994", "line2": "2 39260  98.4755 316.8277 0013885 219.9753 140.0400 14.15692637631053"}}, "geometry": {"type": "Point", "coordinates": [-50.120979723980135, 42.17399961383322]}}, {"type": "Feature", "properties": {"norad_id": 40069, "name": "METEOR-M 2", "group": "weather", "lat": -57.486897825466386, "lon": 123.92077702595839, "alt_km": 824.347967531402, "timestamp": "2025-12-05T14:45:14.957498+00:00", "meta": {"OBJECT_NAME": "METEOR-M 2", "OBJECT_ID": "2014-037A", "EPOCH": "2025-12-04T19:03:05.585760", "MEAN_MOTION": 14.21381783, "ECCENTRICITY": 0.0004734, "INCLINATION": 98.4894, "RA_OF_ASC_NODE": 316.6833, "ARG_OF_PERICENTER": 235.9996, "MEAN_ANOMALY": 124.0732, "EPHEMERIS_TYPE": 0, "CLASSIFICATION_TYPE": "U", "NORAD_CAT_ID": 40069, "ELEMENT_SET_NO": 999, "REV_AT_EPOCH": 59170, "BSTAR": 0.00014795, "MEAN_MOTION_DOT": 2.81e-06, "MEAN_MOTION_DDOT": 0}, "tle": {"line1": "1 40069U 14037A   25338.79381465  .00000281  00000+0  14795-3 0  9997", "line2": "2 40069  98.4894 316.6833 0004734 235.9996 124.0732 14.21381783591703"}}, "geometry": {"type": "Point", "coordinates": [123.92077702595839, -57.486897825466386]}}, {"type": "Feature", "properties": {"norad_id": 40267, "name": "HIMAWARI-8", "group": "weather", "lat": -0.0035425185596105477, "lon": 76.64627725277211, "alt_km": 35791.52196709501, "timestamp": "2025-12-05T14:45:14.957510+00:00", "meta": {"OBJECT_NAME": "HIMAWARI-8", "OBJECT_ID": "2014-060A", "EPOCH": "2025-12-04T14:23:45.762144", "MEAN_MOTION": 1.00270217, "ECCENTRICITY": 0.0001317, "INCLINATION": 0.0105, "RA_OF_ASC_NODE": 98.274, "ARG_OF_PERICENTER": 187.1183, "MEAN_ANOMALY": 144.897, "EPHEMERIS_TYPE": 0, "CLASSIFICATION_TYPE": "U", "NORAD_CAT_ID": 40267, "ELEMENT_SET_NO": 999, "REV_AT_EPOCH": 4080, "BSTAR": 0, "MEAN_MOTION_DOT": -2.61e-06, "MEAN_MOTION_DDOT": 0}, "tle": {"line1": "1 40267U 14060A   25338.59983521 -.00000261  00000+0  00000+0 0  9991", "line2": "2 40267   0.0105  98.2740 0001317 187.1183 144.8970  1.00270217 40803"}}, "geometry": {"type": "Point", "coordinates": [76.64627725277211, -0.0035425185596105477]}}, {"type": "Feature", "properties": {"norad_id": 40367, "name": "FENGYUN 2G", "group": "weather", "lat": -3.250240612747072, "lon": 35.79793082032599, "alt_km": 35795.838352041246, "timestamp": "2025-12-05T14:45:14.957522+00:00", "meta": {"OBJECT_NAME": "FENGYUN 2G", "OBJECT_ID": "2014-090A", "EPOCH": "2025-12-04T17:37:34.696704", "MEAN_MOTION": 1.00266912, "ECCENTRICITY": 0.0003143, "INCLINATION": 5.1466, "RA_OF_ASC_NODE": 75.1906, "ARG_OF_PERICENTER": 194.4854, "MEAN_ANOMALY": 168.2191, "EPHEMERIS_TYPE": 0, "CLASSIFICATION_TYPE": "U", "NORAD_CAT_ID": 40367, "ELEMENT_SET_NO": 999, "REV_AT_EPOCH": 4005, "BSTAR": 0, "MEAN_MOTION_DOT": -2.91e-06, "MEAN_MOTION_DDOT": 0}, "tle": {"line1": "1 40367U 14090A   25338.73442936 -.00000291  00000+0  00000+0 0  9994", "line2": "2 40367   5.1466  75.1906 0003143 194.4854 168.2191  1.00266912 40052"}}, "geometry": {"type": "Point", "coordinates": [35.79793082032599, -3.250240612747072]}}, {"type": "Feature", "properties": {"norad_id": 40732, "name": "METEOSAT-11 (MSG-4)", "group": "weather", "lat": -2.1942732404084357, "lon": -54.63287377297296, "alt_km": 35790.03857394122, "timestamp": "2025-12-05T14:45:14.957535+00:00", "meta": {"OBJECT_NAME": "METEOSAT-11 (MSG-4)", "OBJECT_ID": "2015-034A", "EPOCH": "2025-12-04T13:46:19.349184", "MEAN_MOTION": 1.00264986, "ECCENTRICITY": 0.000103, "INCLINATION": 2.715, "RA_OF_ASC_NODE": 72.024, "ARG_OF_PERICENTER": 117.8054, "MEAN_ANOMALY": 99.8358, "EPHEMERIS_TYPE": 0, "CLASSIFICATION_TYPE": "U", "NORAD_CAT_ID": 40732, "ELEMENT_SET_NO": 999, "REV_AT_EPOCH": 526, "BSTAR": 0, "MEAN_MOTION_DOT": 7.5e-07, "MEAN_MOTION_DDOT": 0}, "tle": {"line1": "1 40732U 15034A   25338.57383506  .00000075  00000+0  00000+0 0  9997", "line2": "2 40732   2.7150  72.0240 0001030 117.8054  99.8358  1.00264986  5269"}}, "geometry": {"type": "Point", "coordinates": [-54.63287377297296, -2.1942732404084357]}}, {"type": "Feature", "properties": {"norad_id": 41105, "name": "ELEKTRO-L 2", "group": "weather", "lat": -2.984057135288847, "lon": -78.69068574085772, "alt_km": 35770.353333563406, "timestamp": "2025-12-05T14:45:14.957546+00:00", "meta": {"OBJECT_NAME": "ELEKTRO-L 2", "OBJECT_ID": "2015-074A", "EPOCH": "2025-12-04T01:40:17.137056", "MEAN_MOTION": 1.00269777, "ECCENTRICITY": 0.00040203, "INCLINATION": 6.2023, "RA_OF_ASC_NODE": 72.9293, "ARG_OF_PERICENTER": 197.7104, "MEAN_ANOMALY": 173.0548, "EPHEMERIS_TYPE": 0, "CLASSIFICATION_TYPE": "U", "NORAD_CAT_ID": 41105, "ELEMENT_SET_NO": 999, "REV_AT_EPOCH": 3655, "BSTAR": 0, "MEAN_MOTION_DOT": -1.05e-06, "MEAN_MOTION_DDOT": 0}, "tle": {"line1": "1 41105U 15074A   25338.06964279 -.00000105  00000+0  00000+0 0  9997", "line2": "2 41105   6.2023  72.9293 0004020 197.7104 173.0548  1.00269777 36559"}}, "geometry": {"type": "Point", "coordinates": [-78.69068574085772, -2.984057135288847]}}, {"type": "Feature", "properties": {"norad_id": 41752, "name": "INSAT-3DR", "group": "weather", "lat": -0.04810690635329435, "lon": 10.148291894837278, "alt_km": 35798.42805315901, "timestamp": "2025-12-05T14:45:14.957558+00:00", "meta": {"OBJECT_NAME": "INSAT-3DR", "OBJECT_ID": "2016-054A", "EPOCH": "2025-12-04T14:04:47.577792", "MEAN_MOTION": 1.00269621, "ECCENTRICITY": 0.0014527, "INCLINATION": 0.0713, "RA_OF_ASC_NODE": 88.5764, "ARG_OF_PERICENTER": 180.632, "MEAN_ANOMALY": 89.672, "EPHEMERIS_TYPE": 0, "CLASSIFICATION_TYPE": "U", "NORAD_CAT_ID": 41752, "ELEMENT_SET_NO": 999, "REV_AT_EPOCH": 3386, "BSTAR": 0, "MEAN_MOTION_DOT": -6.2e-07, "MEAN_MOTION_DDOT": 0}, "tle": {"line1": "1 41752U 16054A   25338.58666178 -.00000062  00000+0  00000+0 0  9990", "line2": "2 41752   0.0713  88.5764 0014527 180.6320  89.6720  1.00269621 33868"}}, "geometry": {"type": "Point", "coordinates": [10.148291894837278, -0.04810690635329435]}}]}